STARLINK-4538           
1 53430U 22097AU  22241.58334491  .00079541  00000+0  56634-3 0  9995
2 53430  53.2204 152.0697 0000856  89.8674   3.6682 15.73177769  1306
STARLINK-4548           
1 53431U 22097AV  22241.66667824  .00006719  00000+0  52216-4 0  9994
2 53431  53.2195 151.6600 0001221  80.6510 123.3163 15.73216641  3499
STARLINK-4557           
1 53432U 22097AW  22241.66667824 -.00283191  00000+0 -20778-2 0  9994
2 53432  53.2183 151.6490 0001172  85.7631 121.8246 15.73247260  3495
STARLINK-4549           
1 53433U 22097AX  22241.66667824  .00080647  00000+0  57425-3 0  9994
2 53433  53.2193 151.6548 0000901  84.7330 121.6477 15.73170738  3494
STARLINK-4498           
1 53434U 22097AY  22241.66667824  .00075475  00000+0  53801-3 0  9992
2 53434  53.2193 151.6506 0000895  87.5927 121.1698 15.73171992  3497
STARLINK-4542           
1 53435U 22097AZ  22241.66667824  .00083554  00000+0  59483-3 0  9992
2 53435  53.2199 151.6551 0000711  98.4639 108.4353 15.73161319  3490
STARLINK-4527           
1 53436U 22097BA  22241.58334491  .00078882  00000+0  56209-3 0  9996
2 53436  53.2193 152.0620 0000556  71.6778  25.3743 15.73162587  1307
STARLINK-4526           
1 53438U 22097BC  22241.66667824  .00084678  00000+0  60346-3 0  9993
2 53438  53.2194 151.6484 0001258  91.6167 118.3083 15.73131093  3497
